[Satellite]
VERSION=1.1
NAME=ORBCOMM FM110 [+]
NICKNAME=ORBCOMM FM110 [+]
TLE1=1 41182U 15081D   17186.26902102 -.00000054  00000-0  25946-4 0  9996
TLE2=2 41182  47.0015 260.2838 0002286 230.9858 129.0823 14.54594633 81421
